[{"OBJECT_NAME":"STARLINK-31623","OBJECT_ID":"2024-050U","EPOCH":"2026-03-09T15:01:47.098848","MEAN_MOTION":15.30189981,"ECCENTRICITY":4.77e-5,"INCLINATION":53.1617,"RA_OF_ASC_NODE":180.9527,"ARG_OF_PERICENTER":74.784,"MEAN_ANOMALY":285.3213,"EPHEMERIS_TYPE":0,"CLASSIFICATION_TYPE":"U","NORAD_CAT_ID":59272,"ELEMENT_SET_NO":999,"REV_AT_EPOCH":11054,"BSTAR":-3.3687e-5,"MEAN_MOTION_DOT":-1.356e-5,"MEAN_MOTION_DDOT":0},{"OBJECT_NAME":"NOAA 17 DEB","OBJECT_ID":"2002-032DK","EPOCH":"2026-03-06T06:53:22.349472","MEAN_MOTION":15.29547844,"ECCENTRICITY":0.00135803,"INCLINATION":98.6735,"RA_OF_ASC_NODE":77.6727,"ARG_OF_PERICENTER":131.2945,"MEAN_ANOMALY":228.9463,"EPHEMERIS_TYPE":0,"CLASSIFICATION_TYPE":"U","NORAD_CAT_ID":49481,"ELEMENT_SET_NO":999,"REV_AT_EPOCH":24998,"BSTAR":0.011623019,"MEAN_MOTION_DOT":0.00349096,"MEAN_MOTION_DDOT":0}]
